NORAD_CAT_ID,OBJECT_NAME,OBJECT_TYPE,EPOCH,MEAN_MOTION,ECCENTRICITY,INCLINATION,RA_OF_ASC_NODE,ARG_OF_PERICENTER,MEAN_ANOMALY,BSTAR,MEAN_MOTION_DOT,MEAN_MOTION_DDOT,TLE_LINE0,TLE_LINE1,TLE_LINE2,SEMIMAJOR_AXIS,PERIOD,APOGEE,PERIGEE,DECAYED
52563.0,STARLINK-3942,PAYLOAD,2024-01-21 04:20:27,15.08838682,0.000146,53.2174,28.9834,94.782,265.3339,7.3258e-05,8.78e-06,0.0,0 STARLINK-3942,1 52563U 22051AG  24021.18086864  .00000878  00000-0  73258-4 0  9993,2 52563  53.2174  28.9834 0001460  94.7820 265.3339 15.08838682 93912,6917.884,95.438,540.759,538.739,0.0
52563.0,STARLINK-3942,PAYLOAD,2024-01-21 05:55:50,15.08840374,0.0001486,53.2175,28.6863,96.5867,263.5294,8.5213e-05,1.068e-05,0.0,0 STARLINK-3942,1 52563U 22051AG  24021.24710797  .00001068  00000-0  85213-4 0  9995,2 52563  53.2175  28.6863 0001486  96.5867 263.5294 15.08840374 93855,6917.879,95.438,540.772,538.716,0.0
52563.0,STARLINK-3942,PAYLOAD,2024-01-22 04:11:14,15.08826568,0.0001589,53.2188,24.5232,108.1767,251.9398,0.00019705,2.848e-05,0.0,0 STARLINK-3942,1 52563U 22051AG  24022.17447365  .00002848  00000-0  19705-3 0  9995,2 52563  53.2188  24.5232 0001589 108.1767 251.9398 15.08826568 94066,6917.921,95.438,540.886,538.687,0.0
52563.0,STARLINK-3942,PAYLOAD,2024-01-22 05:46:37,15.08818845,0.0001756,53.2194,24.226,113.7411,246.3765,0.00033986,5.122e-05,0.0,0 STARLINK-3942,1 52563U 22051AG  24022.24071639  .00005122  00000-0  33986-3 0  9995,2 52563  53.2194  24.2260 0001756 113.7411 246.3765 15.08818845 94004,6917.945,95.439,541.025,538.595,0.0
52563.0,STARLINK-3942,PAYLOAD,2024-01-22 08:57:23,15.08837134,0.0001592,53.2191,23.631,113.9013,246.2146,0.00013951,1.933e-05,0.0,0 STARLINK-3942,1 52563U 22051AG  24022.37318962  .00001933  00000-0  13951-3 0  9998,2 52563  53.2191  23.6310 0001592 113.9013 246.2146 15.08837134 94091,6917.889,95.438,540.855,538.653,0.0
52563.0,STARLINK-3942,PAYLOAD,2024-01-23 04:02:02,15.0881444,0.0001714,53.2195,20.0622,101.7416,258.3769,0.00039147,5.943e-05,0.0,0 STARLINK-3942,1 52563U 22051AG  24023.16807912  .00005943  00000-0  39147-3 0  9994,2 52563  53.2195  20.0622 0001714 101.7416 258.3769 15.08814440 94214,6917.959,95.439,541.009,538.638,0.0
52563.0,STARLINK-3942,PAYLOAD,2024-01-23 05:37:24,15.08839974,0.0001713,53.2205,19.7659,96.5843,263.5344,8.6982e-05,1.097e-05,0.0,0 STARLINK-3942,1 52563U 22051AG  24023.23431162  .00001097  00000-0  86982-4 0  9998,2 52563  53.2205  19.7659 0001713  96.5843 263.5344 15.08839974 94154,6917.88,95.438,540.931,538.56,0.0
52563.0,STARLINK-3942,PAYLOAD,2024-01-23 07:12:47,15.08843691,0.0001591,53.2189,19.4684,86.1268,273.9906,9.9822e-05,1.301e-05,0.0,0 STARLINK-3942,1 52563U 22051AG  24023.30054903  .00001301  00000-0  99822-4 0  9995,2 52563  53.2189  19.4684 0001591  86.1268 273.9906 15.08843691 94239,6917.869,95.437,540.835,538.633,0.0
52563.0,STARLINK-3942,PAYLOAD,2024-01-24 07:03:34,15.0884687,0.0001981,53.2205,15.0067,68.1349,291.9853,0.0001097,1.458e-05,0.0,0 STARLINK-3942,1 52563U 22051AG  24024.29414911  .00001458  00000-0  10970-3 0  9992,2 52563  53.2205  15.0067 0001981  68.1349 291.9853 15.08846870 94310,6917.859,95.437,541.095,538.354,0.0
52563.0,STARLINK-3942,PAYLOAD,2024-01-25 03:43:35,15.08843252,0.0001648,53.2198,11.1429,79.1261,280.9917,-6.069e-06,-3.85e-06,0.0,0 STARLINK-3942,1 52563U 22051AG  24025.15527283 -.00000385  00000-0 -60690-5 0  9991,2 52563  53.2198  11.1429 0001648  79.1261 280.9917 15.08843252 94517,6917.87,95.437,540.876,538.595,0.0
52563.0,STARLINK-3942,PAYLOAD,2024-01-25 05:18:59,15.08829288,0.0002122,53.2207,10.8484,60.8339,299.2866,0.00017654,2.522e-05,0.0,0 STARLINK-3942,1 52563U 22051AG  24025.22151904  .00002522  00000-0  17654-3 0  9995,2 52563  53.2207  10.8484 0002122  60.8339 299.2866 15.08829288 94526,6917.913,95.438,541.246,538.31,0.0
52563.0,STARLINK-3942,PAYLOAD,2024-01-26 03:34:22,15.08843304,0.0001562,53.2191,6.689,94.9741,265.1429,4.3089e-07,-2.81e-06,0.0,0 STARLINK-3942,1 52563U 22051AG  24026.14887276 -.00000281  00000-0  43089-6 0  9990,2 52563  53.2191   6.6890 0001562  94.9741 265.1429 15.08843304 94661,6917.87,95.437,540.816,538.655,0.0
52563.0,STARLINK-3942,PAYLOAD,2024-01-26 05:09:45,15.08845515,0.0001587,53.2189,6.3913,84.3116,275.8057,5.3763e-06,-2.02e-06,0.0,0 STARLINK-3942,1 52563U 22051AG  24026.21511242 -.00000202  00000-0  53763-5 0  9997,2 52563  53.2189   6.3913 0001587  84.3116 275.8057 15.08845515 94602,6917.864,95.437,540.826,538.631,0.0
52563.0,STARLINK-3942,PAYLOAD,2024-01-27 08:11:19,15.08840293,0.0001618,53.2197,1.3261,102.9961,257.1212,8.3271e-05,1.037e-05,0.0,0 STARLINK-3942,1 52563U 22051AG  24027.34119268  .00001037  00000-0  83271-4 0  9996,2 52563  53.2197   1.3261 0001618 102.9961 257.1212 15.08840293 94774,6917.879,95.438,540.864,538.625,0.0
52563.0,STARLINK-3942,PAYLOAD,2024-01-28 04:51:20,15.08835543,0.000157,53.2197,357.4591,102.7029,257.4139,2.0255e-05,3.4e-07,0.0,0 STARLINK-3942,1 52563U 22051AG  24028.20231890  .00000034  00000-0  20255-4 0  9997,2 52563  53.2197 357.4591 0001570 102.7029 257.4139 15.08835543 94970,6917.894,95.438,540.845,538.673,0.0
52563.0,STARLINK-3942,PAYLOAD,2024-01-28 22:20:34,15.0884094,0.0001537,53.2197,354.1878,103.3837,256.7326,8.2524e-05,1.026e-05,0.0,0 STARLINK-3942,1 52563U 22051AG  24028.93095455  .00001026  00000-0  82524-4 0  9991,2 52563  53.2197 354.1878 0001537 103.3837 256.7326 15.08840940 95012,6917.878,95.437,540.806,538.679,0.0
52563.0,STARLINK-3942,PAYLOAD,2024-01-29 03:06:43,15.08848856,0.0001423,53.2188,353.2961,85.3173,274.7982,0.00010878,1.444e-05,0.0,0 STARLINK-3942,1 52563U 22051AG  24029.12966976  .00001444  00000-0  10878-3 0  9994,2 52563  53.2188 353.2961 0001423  85.3173 274.7982 15.08848856 95114,6917.853,95.437,540.703,538.734,0.0
52563.0,STARLINK-3942,PAYLOAD,2024-01-29 06:17:29,15.08855831,0.0001558,53.2199,352.7014,95.7082,264.4088,0.00012335,1.676e-05,0.0,0 STARLINK-3942,1 52563U 22051AG  24029.26214422  .00001676  00000-0  12335-3 0  9998,2 52563  53.2199 352.7014 0001558  95.7082 264.4088 15.08855831 95138,6917.832,95.437,540.775,538.619,0.0
52563.0,STARLINK-3942,PAYLOAD,2024-01-30 04:32:54,15.08841374,0.0001524,53.2194,348.5445,87.5493,272.5673,8.727e-05,1.101e-05,0.0,0 STARLINK-3942,1 52563U 22051AG  24030.18951711  .00001101  00000-0  87270-4 0  9994,2 52563  53.2194 348.5445 0001524  87.5493 272.5673 15.08841374 95274,6917.876,95.437,540.795,538.687,0.0
52563.0,STARLINK-3942,PAYLOAD,2024-01-30 06:08:17,15.08844408,0.0001607,53.2201,348.2467,98.5508,261.5667,0.0001152,1.546e-05,0.0,0 STARLINK-3942,1 52563U 22051AG  24030.25575431  .00001546  00000-0  11520-3 0  9990,2 52563  53.2201 348.2467 0001607  98.5508 261.5667 15.08844408 95211,6917.867,95.437,540.844,538.62,0.0
52563.0,STARLINK-3942,PAYLOAD,2024-01-31 04:23:41,15.08842942,0.0001575,53.2187,344.0811,117.7911,242.3241,-2.9707e-05,-7.61e-06,0.0,0 STARLINK-3942,1 52563U 22051AG  24031.18311709 -.00000761  00000-0 -29707-4 0  9996,2 52563  53.2187 344.0811 0001575 117.7911 242.3241 15.08842942 95358,6917.871,95.437,540.826,538.647,0.0
52563.0,STARLINK-3942,PAYLOAD,2024-01-31 20:17:33,15.08837785,0.0001524,53.219,341.1116,93.7241,266.3925,1.2159e-05,-9.4e-07,0.0,0 STARLINK-3942,1 52563U 22051AG  24031.84552331 -.00000094  00000-0  12159-4 0  9998,2 52563  53.2190 341.1116 0001524  93.7241 266.3925 15.08837785 95524,6917.887,95.438,540.806,538.698,0.0
52563.0,STARLINK-3942,PAYLOAD,2024-02-01 04:14:28,15.08839868,0.0001555,53.219,339.6244,89.2822,270.8348,3.0391e-05,1.96e-06,0.0,0 STARLINK-3942,1 52563U 22051AG  24032.17672234  .00000196  00000-0  30391-4 0  9990,2 52563  53.2190 339.6244 0001555  89.2822 270.8348 15.08839868 95508,6917.881,95.438,540.822,538.67,0.0
52563.0,STARLINK-3942,PAYLOAD,2024-02-01 20:08:20,15.08837712,0.0001689,53.2189,336.6509,80.1753,279.943,0.00010178,1.332e-05,0.0,0 STARLINK-3942,1 52563U 22051AG  24032.83912374  .00001332  00000-0  10178-3 0  9998,2 52563  53.2189 336.6509 0001689  80.1753 279.9430 15.08837712 95607,6917.887,95.438,540.921,538.584,0.0
52563.0,STARLINK-3942,PAYLOAD,2024-02-02 02:29:52,15.08840495,0.0001744,53.2188,335.4618,77.9626,282.1562,0.00012071,1.634e-05,0.0,0 STARLINK-3942,1 52563U 22051AG  24033.10408224  .00001634  00000-0  12071-3 0  9992,2 52563  53.2188 335.4618 0001744  77.9626 282.1562 15.08840495 95715,6917.879,95.438,540.95,538.537,0.0
52563.0,STARLINK-3942,PAYLOAD,2024-02-02 19:59:07,15.08842944,0.0001713,53.2181,332.1903,79.3003,280.8182,0.00010138,1.326e-05,0.0,0 STARLINK-3942,1 52563U 22051AG  24033.83272143  .00001326  00000-0  10138-3 0  9991,2 52563  53.2181 332.1903 0001713  79.3003 280.8182 15.08842944 95758,6917.871,95.437,540.921,538.551,0.0
52563.0,STARLINK-3942,PAYLOAD,2024-02-03 05:31:25,15.08847229,0.0001534,53.2177,330.4045,94.3529,265.7638,0.00012162,1.648e-05,0.0,0 STARLINK-3942,1 52563U 22051AG  24034.23015671  .00001648  00000-0  12162-3 0  9993,2 52563  53.2177 330.4045 0001534  94.3529 265.7638 15.08847229 95818,6917.858,95.437,540.784,538.662,0.0
52563.0,STARLINK-3942,PAYLOAD,2024-02-04 02:11:26,15.08846097,0.0001207,53.2171,326.5355,89.4201,270.693,8.5542e-06,-1.52e-06,0.0,0 STARLINK-3942,1 52563U 22051AG  24035.09127920 -.00000152  00000-0  85542-5 0  9993,2 52563  53.2171 326.5355 0001207  89.4201 270.6930 15.08846097 96016,6917.862,95.437,540.562,538.892,0.0
52563.0,STARLINK-3942,PAYLOAD,2024-02-04 05:22:12,15.08846124,0.0001426,53.218,325.9436,100.8182,259.2971,6.9471e-05,8.18e-06,0.0,0 STARLINK-3942,1 52563U 22051AG  24035.22375836  .00000818  00000-0  69471-4 0  9999,2 52563  53.2180 325.9436 0001426 100.8182 259.2971 15.08846124 95960,6917.862,95.437,540.713,538.74,0.0
52563.0,STARLINK-3942,PAYLOAD,2024-02-04 18:05:18,15.08840787,0.0001686,53.2182,323.5635,102.1759,257.9422,9.5186e-06,-1.37e-06,0.0,0 STARLINK-3942,1 52563U 22051AG  24035.75368375 -.00000137  00000-0  95186-5 0  9995,2 52563  53.2182 323.5635 0001686 102.1759 257.9422 15.08840787 96113,6917.878,95.438,540.909,538.577,0.0
